[{"OBJECT_NAME":"RESURS-P 4","OBJECT_ID":"2024-061A","EPOCH":"2026-03-10T00:09:50.865408","MEAN_MOTION":15.32930455,"ECCENTRICITY":0.00024315,"INCLINATION":97.2654,"RA_OF_ASC_NODE":18.6595,"ARG_OF_PERICENTER":59.481,"MEAN_ANOMALY":300.6672,"EPHEMERIS_TYPE":0,"CLASSIFICATION_TYPE":"U","NORAD_CAT_ID":59371,"ELEMENT_SET_NO":999,"REV_AT_EPOCH":10857,"BSTAR":0.00016169192,"MEAN_MOTION_DOT":5.066e-5,"MEAN_MOTION_DDOT":0},{"OBJECT_NAME":"STARLINK-35033","OBJECT_ID":"2025-195L","EPOCH":"2026-03-09T17:26:14.081568","MEAN_MOTION":15.30198377,"ECCENTRICITY":0.00010424,"INCLINATION":53.1592,"RA_OF_ASC_NODE":257.6971,"ARG_OF_PERICENTER":113.8761,"MEAN_ANOMALY":246.2349,"EPHEMERIS_TYPE":0,"CLASSIFICATION_TYPE":"U","NORAD_CAT_ID":65468,"ELEMENT_SET_NO":999,"REV_AT_EPOCH":3000,"BSTAR":0.00045136319,"MEAN_MOTION_DOT":0.00013032,"MEAN_MOTION_DDOT":0}]
